{
    "links": {
        "self": "http://www.neowsapp.com/rest/v1/neo/3892768?api_key=iIulBulltgU6a56xZRHN4H3l9WmuAYTsLGpBGhQ2"
    },
    "id": "3892768",
    "neo_reference_id": "3892768",
    "name": "(2019 VT4)",
    "designation": "2019 VT4",
    "nasa_jpl_url": "http://ssd.jpl.nasa.gov/sbdb.cgi?sstr=3892768",
    "absolute_magnitude_h": 24.4,
    "estimated_diameter": {
        "kilometers": {
            "estimated_diameter_min": 0.0350392641,
            "estimated_diameter_max": 0.0783501764
        },
        "meters": {
            "estimated_diameter_min": 35.0392641108,
            "estimated_diameter_max": 78.3501764334
        },
        "miles": {
            "estimated_diameter_min": 0.0217723826,
            "estimated_diameter_max": 0.0486845275
        },
        "feet": {
            "estimated_diameter_min": 114.9582192654,
            "estimated_diameter_max": 257.0543928497
        }
    },
    "is_potentially_hazardous_asteroid": false,
    "close_approach_data": [
        {
            "close_approach_date": "2019-11-21",
            "close_approach_date_full": "2019-Nov-21 16:34",
            "epoch_date_close_approach": 1574354040000,
            "relative_velocity": {
                "kilometers_per_second": "6.668476504",
                "kilometers_per_hour": "24006.5154143205",
                "miles_per_hour": "14916.7150917482"
            },
            "miss_distance": {
                "astronomical": "0.1072223147",
                "lunar": "41.7094804183",
                "kilometers": "16040229.895589689",
                "miles": "9966936.6841241482"
            },
            "orbiting_body": "Earth"
        }
    ],
    "orbital_data": {
        "orbit_id": "1",
        "orbit_determination_date": "2019-11-08 08:12:27",
        "first_observation_date": "2019-11-02",
        "last_observation_date": "2019-11-08",
        "data_arc_in_days": 6,
        "observations_used": 12,
        "orbit_uncertainty": "8",
        "minimum_orbit_intersection": ".0973058",
        "jupiter_tisserand_invariant": "4.735",
        "epoch_osculation": "2458791.5",
        "eccentricity": ".2216353908602498",
        "semi_major_axis": "1.388268883261048",
        "inclination": "11.64530693473933",
        "ascending_node_longitude": "55.15490287851905",
        "orbital_period": "597.4599677136636",
        "perihelion_distance": "1.080579366700363",
        "perihelion_argument": "14.63400247273506",
        "aphelion_distance": "1.695958399821732",
        "perihelion_time": "2458817.861061683347",
        "mean_anomaly": "344.1161203782057",
        "mean_motion": ".6025508309412494",
        "equinox": "J2000",
        "orbit_class": {
            "orbit_class_type": "AMO",
            "orbit_class_description": "Near-Earth asteroid orbits similar to that of 1221 Amor",
            "orbit_class_range": "1.017 AU < q (perihelion) < 1.3 AU"
        }
    },
    "is_sentry_object": false
}